{
  "type": "FeatureCollection",
  "features": [
    {
      "type": "Feature",
      "properties": {
        "norad_id": 34420,
        "name": "COSMOS 2251 DEB",
        "group": "cosmos-2251-debris",
        "lat": -37.135643379910356,
        "lon": -70.70330995209193,
        "alt_km": 597.4884105969941,
        "timestamp": "2025-12-16T10:53:45.865361+00:00",
        "meta_object_name": "COSMOS 2251 DEB",
        "meta_object_id": "1993-036RM",
        "meta_epoch": "2025-12-15T18:16:55.693344",
        "meta_mean_motion": 14.68307813,
        "meta_eccentricity": 0.01065152,
        "meta_inclination": 74.0336,
        "meta_ra_of_asc_node": 98.1135,
        "meta_arg_of_pericenter": 218.5512,
        "meta_mean_anomaly": 302.5718,
        "meta_ephemeris_type": 0,
        "meta_classification_type": "U",
        "meta_norad_cat_id": 34420,
        "meta_element_set_no": 999,
        "meta_rev_at_epoch": 89814,
        "meta_bstar": 0.00019978844,
        "meta_mean_motion_dot": 1.22e-05,
        "meta_mean_motion_ddot": 0,
        "tle_line1": "1 34420U 93036RM  25349.76175571  .00001220  00000+0  19979-3 0  9998",
        "tle_line2": "2 34420  74.0336  98.1135 0106515 218.5512 302.5718 14.68307813898144"
      },
      "geometry": {
        "type": "Point",
        "coordinates": [
          -70.70330995209193,
          -37.135643379910356
        ]
      }
    },
    {
      "type": "Feature",
      "properties": {
        "norad_id": 34425,
        "name": "COSMOS 2251 DEB",
        "group": "cosmos-2251-debris",
        "lat": -42.03976068419221,
        "lon": -117.62844237004182,
        "alt_km": 681.5374233079174,
        "timestamp": "2025-12-16T10:53:45.865371+00:00",
        "meta_object_name": "COSMOS 2251 DEB",
        "meta_object_id": "1993-036RS",
        "meta_epoch": "2025-12-15T14:10:13.909728",
        "meta_mean_motion": 14.62146734,
        "meta_eccentricity": 0.00246481,
        "meta_inclination": 74.0205,
        "meta_ra_of_asc_node": 49.0526,
        "meta_arg_of_pericenter": 174.8254,
        "meta_mean_anomaly": 185.3173,
        "meta_ephemeris_type": 0,
        "meta_classification_type": "U",
        "meta_norad_cat_id": 34425,
        "meta_element_set_no": 999,
        "meta_rev_at_epoch": 88782,
        "meta_bstar": 0.00038919217,
        "meta_mean_motion_dot": 1.936e-05,
        "meta_mean_motion_ddot": 0,
        "tle_line1": "1 34425U 93036RS  25349.59043877  .00001936  00000+0  38919-3 0  9996",
        "tle_line2": "2 34425  74.0205  49.0526 0024648 174.8254 185.3173 14.62146734887828"
      },
      "geometry": {
        "type": "Point",
        "coordinates": [
          -117.62844237004182,
          -42.03976068419221
        ]
      }
    },
    {
      "type": "Feature",
      "properties": {
        "norad_id": 34429,
        "name": "COSMOS 2251 DEB",
        "group": "cosmos-2251-debris",
        "lat": -73.72156560272431,
        "lon": 79.96514819062102,
        "alt_km": 443.37775561580384,
        "timestamp": "2025-12-16T10:53:45.865382+00:00",
        "meta_object_name": "COSMOS 2251 DEB",
        "meta_object_id": "1993-036RW",
        "meta_epoch": "2025-12-15T21:58:06.886272",
        "meta_mean_motion": 15.42937946,
        "meta_eccentricity": 0.00088752,
        "meta_inclination": 73.9688,
        "meta_ra_of_asc_node": 161.0978,
        "meta_arg_of_pericenter": 359.8744,
        "meta_mean_anomaly": 162.2244,
        "meta_ephemeris_type": 0,
        "meta_classification_type": "U",
        "meta_norad_cat_id": 34429,
        "meta_element_set_no": 999,
        "meta_rev_at_epoch": 89497,
        "meta_bstar": 0.0039014101,
        "meta_mean_motion_dot": 0.00175832,
        "meta_mean_motion_ddot": 0,
        "tle_line1": "1 34429U 93036RW  25349.91535748  .00175832  00000+0  39014-2 0  9992",
        "tle_line2": "2 34429  73.9688 161.0978 0008875 359.8744 162.2244 15.42937946894973"
      },
      "geometry": {
        "type": "Point",
        "coordinates": [
          79.96514819062102,
          -73.72156560272431
        ]
      }
    },
    {
      "type": "Feature",
      "properties": {
        "norad_id": 34430,
        "name": "COSMOS 2251 DEB",
        "group": "cosmos-2251-debris",
        "lat": 60.840588618993486,
        "lon": -32.659992193744145,
        "alt_km": 731.6637383657426,
        "timestamp": "2025-12-16T10:53:45.865392+00:00",
        "meta_object_name": "COSMOS 2251 DEB",
        "meta_object_id": "1993-036RX",
        "meta_epoch": "2025-12-15T06:14:43.575648",
        "meta_mean_motion": 14.39641546,
        "meta_eccentricity": 0.00604814,
        "meta_inclination": 74.052,
        "meta_ra_of_asc_node": 298.7113,
        "meta_arg_of_pericenter": 7.7475,
        "meta_mean_anomaly": 352.4599,
        "meta_ephemeris_type": 0,
        "meta_classification_type": "U",
        "meta_norad_cat_id": 34430,
        "meta_element_set_no": 999,
        "meta_rev_at_epoch": 87991,
        "meta_bstar": 0.00044069531,
        "meta_mean_motion_dot": 1.381e-05,
        "meta_mean_motion_ddot": 0,
        "tle_line1": "1 34430U 93036RX  25349.26022657  .00001381  00000+0  44070-3 0  9998",
        "tle_line2": "2 34430  74.0520 298.7113 0060481   7.7475 352.4599 14.39641546879918"
      },
      "geometry": {
        "type": "Point",
        "coordinates": [
          -32.659992193744145,
          60.840588618993486
        ]
      }
    },
    {
      "type": "Feature",
      "properties": {
        "norad_id": 34431,
        "name": "COSMOS 2251 DEB",
        "group": "cosmos-2251-debris",
        "lat": -1.858494933788454,
        "lon": -10.992663904224495,
        "alt_km": 755.6346318088599,
        "timestamp": "2025-12-16T10:53:45.865402+00:00",
        "meta_object_name": "COSMOS 2251 DEB",
        "meta_object_id": "1993-036RY",
        "meta_epoch": "2025-12-15T22:17:17.901024",
        "meta_mean_motion": 14.28785587,
        "meta_eccentricity": 0.00681464,
        "meta_inclination": 74.0739,
        "meta_ra_of_asc_node": 169.4271,
        "meta_arg_of_pericenter": 154.2806,
        "meta_mean_anomaly": 206.1759,
        "meta_ephemeris_type": 0,
        "meta_classification_type": "U",
        "meta_norad_cat_id": 34431,
        "meta_element_set_no": 999,
        "meta_rev_at_epoch": 87188,
        "meta_bstar": 0.0005372417,
        "meta_mean_motion_dot": 1.363e-05,
        "meta_mean_motion_ddot": 0,
        "tle_line1": "1 34431U 93036RY  25349.92867941  .00001363  00000+0  53724-3 0  9991",
        "tle_line2": "2 34431  74.0739 169.4271 0068146 154.2806 206.1759 14.28785587871885"
      },
      "geometry": {
        "type": "Point",
        "coordinates": [
          -10.992663904224495,
          -1.858494933788454
        ]
      }
    },
    {
      "type": "Feature",
      "properties": {
        "norad_id": 34432,
        "name": "COSMOS 2251 DEB",
        "group": "cosmos-2251-debris",
        "lat": -22.03072304815684,
        "lon": -77.47585914772797,
        "alt_km": 768.236751825103,
        "timestamp": "2025-12-16T10:53:45.865413+00:00",
        "meta_object_name": "COSMOS 2251 DEB",
        "meta_object_id": "1993-036RZ",
        "meta_epoch": "2025-12-15T17:32:34.592352",
        "meta_mean_motion": 14.02921603,
        "meta_eccentricity": 0.01822667,
        "meta_inclination": 73.8288,
        "meta_ra_of_asc_node": 97.0546,
        "meta_arg_of_pericenter": 179.2747,
        "meta_mean_anomaly": 332.3711,
        "meta_ephemeris_type": 0,
        "meta_classification_type": "U",
        "meta_norad_cat_id": 34432,
        "meta_element_set_no": 999,
        "meta_rev_at_epoch": 85726,
        "meta_bstar": 0.0010361779,
        "meta_mean_motion_dot": 1.835e-05,
        "meta_mean_motion_ddot": 0,
        "tle_line1": "1 34432U 93036RZ  25349.73095593  .00001835  00000+0  10362-2 0  9991",
        "tle_line2": "2 34432  73.8288  97.0546 0182266 179.2747 332.3711 14.02921603857263"
      },
      "geometry": {
        "type": "Point",
        "coordinates": [
          -77.47585914772797,
          -22.03072304815684
        ]
      }
    },
    {
      "type": "Feature",
      "properties": {
        "norad_id": 34433,
        "name": "COSMOS 2251 DEB",
        "group": "cosmos-2251-debris",
        "lat": 0.48843822778046225,
        "lon": 148.5008060118398,
        "alt_km": 821.8799778861148,
        "timestamp": "2025-12-16T10:53:45.865423+00:00",
        "meta_object_name": "COSMOS 2251 DEB",
        "meta_object_id": "1993-036SA",
        "meta_epoch": "2025-12-15T21:17:56.521536",
        "meta_mean_motion": 14.1286834,
        "meta_eccentricity": 0.01524673,
        "meta_inclination": 74.0101,
        "meta_ra_of_asc_node": 149.3638,
        "meta_arg_of_pericenter": 286.8174,
        "meta_mean_anomaly": 71.6289,
        "meta_ephemeris_type": 0,
        "meta_classification_type": "U",
        "meta_norad_cat_id": 34433,
        "meta_element_set_no": 999,
        "meta_rev_at_epoch": 85994,
        "meta_bstar": 0.00092097603,
        "meta_mean_motion_dot": 1.887e-05,
        "meta_mean_motion_ddot": 0,
        "tle_line1": "1 34433U 93036SA  25349.88745974  .00001887  00000+0  92098-3 0  9997",
        "tle_line2": "2 34433  74.0101 149.3638 0152467 286.8174  71.6289 14.12868340859942"
      },
      "geometry": {
        "type": "Point",
        "coordinates": [
          148.5008060118398,
          0.48843822778046225
        ]
      }
    }
  ]
}